NORAD_CAT_ID,OBJECT_NAME,OBJECT_TYPE,EPOCH,MEAN_MOTION,ECCENTRICITY,INCLINATION,RA_OF_ASC_NODE,ARG_OF_PERICENTER,MEAN_ANOMALY,BSTAR,MEAN_MOTION_DOT,MEAN_MOTION_DDOT,TLE_LINE0,TLE_LINE1,TLE_LINE2,SEMIMAJOR_AXIS,PERIOD,APOGEE,PERIGEE,DECAYED
54797.0,STARLINK-5435,PAYLOAD,2023-01-19 14:00:01,15.44651625,0.0001177999999999,53.2144,146.1284,73.5205,27.2284,-0.027804,-0.011979,0.0,0 STARLINK-5435,1 54797U 22175AR  23019.58334491 -.01197900  00000-0 -27804-1 0  9992,2 54797  53.2144 146.1284 0001178  73.5205  27.2284 15.44651625  1306,6810.539000000001,93.225,433.206,431.602,0.0
54797.0,STARLINK-5435,PAYLOAD,2023-01-19 22:00:00,15.43836794,0.0001267,53.2146,144.5489,69.6493,85.1925,-0.030133,-0.0125657,0.0,0 STARLINK-5435,1 54797U 22175AR  23019.91667824 -.01256570  00000-0 -30133-1 0  9996,2 54797  53.2146 144.5489 0001267  69.6493  85.1925 15.43836794  4917,6812.935,93.274,435.663,433.937,0.0
54797.0,STARLINK-5435,PAYLOAD,2023-01-20 14:00:01,15.42075344,0.0001336,53.2154,141.3961,80.4497,179.5389,-0.030036,-0.01186665,0.0,0 STARLINK-5435,1 54797U 22175AR  23020.58334491 -.01186665  00000-0 -30036-1 0  9991,2 54797  53.2154 141.3961 0001336  80.4497 179.5389 15.42075344  5028,6818.121999999999,93.381,440.898,439.076,0.0
54797.0,STARLINK-5435,PAYLOAD,2023-01-20 16:00:00,15.41855999,0.0001155999999999,53.2155,141.0029,72.7577,290.08,-0.029823,-0.0117102,0.0,0 STARLINK-5435,1 54797U 22175AR  23020.66667824 -.01171020  00000-0 -29823-1 0  9990,2 54797  53.2155 141.0029 0001156  72.7577 290.0800 15.41855999  1309,6818.769,93.394,441.422,439.846,0.0
54797.0,STARLINK-5435,PAYLOAD,2023-01-21 06:00:00,15.40359392,0.0001155,53.2158,138.2496,92.8897,268.1033,-0.031272,-0.0116819,0.0,0 STARLINK-5435,1 54797U 22175AR  23021.25001157 -.01168190  00000-0 -31272-1 0  9992,2 54797  53.2158 138.2496 0001155  92.8897 268.1033 15.40359392  5128,6823.185,93.485,445.838,444.262,0.0
54797.0,STARLINK-5435,PAYLOAD,2023-01-21 22:00:00,15.38688257,0.0001249,53.2159,135.1146,70.1416,27.7308,-0.035673,-0.01252184,0.0,0 STARLINK-5435,1 54797U 22175AR  23021.91667824 -.01252184  00000-0 -35673-1 0  9990,2 54797  53.2159 135.1146 0001249  70.1416  27.7308 15.38688257  5224,6828.124,93.586,450.842,449.136,0.0
54797.0,STARLINK-5435,PAYLOAD,2023-01-22 14:00:01,15.36929884,0.00015,53.2158,131.9867,77.1512,113.503,-0.035373,-0.01179323,0.0,0 STARLINK-5435,1 54797U 22175AR  23022.58334491 -.01179323  00000-0 -35373-1 0  9995,2 54797  53.2158 131.9867 0001500  77.1512 113.5030 15.36929884  5320,6833.331,93.693,456.221,454.171,0.0
54797.0,STARLINK-5435,PAYLOAD,2023-01-23 06:00:02,15.35237277,0.0001335,53.2155,128.8648,100.8243,178.5316,-0.038061,-0.01199249,0.0,0 STARLINK-5435,1 54797U 22175AR  23023.25002315 -.01199249  00000-0 -38061-1 0  9993,2 54797  53.2155 128.8648 0001335 100.8243 178.5316 15.35237277  5437,6838.353,93.797,461.131,459.305,0.0
54797.0,STARLINK-5435,PAYLOAD,2023-01-23 22:00:00,15.33538782,0.0001174,53.2148,125.7538,86.5144,277.307,-0.041745,-0.01259056,0.0,0 STARLINK-5435,1 54797U 22175AR  23023.91667824 -.01259056  00000-0 -41745-1 0  9994,2 54797  53.2148 125.7538 0001174  86.5144 277.3070 15.33538782  5533,6843.401,93.9,466.07,464.463,0.0
54797.0,STARLINK-5435,PAYLOAD,2023-01-24 14:00:01,15.31790319,0.0001306,53.2147,122.6504,80.6353,3.603,-0.041726,-0.01179946,0.0,0 STARLINK-5435,1 54797U 22175AR  23024.58334491 -.01179946  00000-0 -41726-1 0  9997,2 54797  53.2147 122.6504 0001306  80.6353   3.6030 15.31790319  5636,6848.608,94.008,471.367,469.578,0.0
54797.0,STARLINK-5435,PAYLOAD,2023-01-25 06:00:00,15.30100554,0.0001441999999999,53.2145,119.5524,94.0861,66.4314,-0.045185,-0.01225947,0.0,0 STARLINK-5435,1 54797U 22175AR  23025.25001157 -.01225947  00000-0 -45185-1 0  9998,2 54797  53.2145 119.5524 0001442  94.0861  66.4314 15.30100554  5733,6853.649,94.111,476.502,474.526,0.0
54797.0,STARLINK-5435,PAYLOAD,2023-01-25 14:00:01,15.29215588,0.0001440999999999,53.2142,118.0091,85.0511,112.0762,-0.044919,-0.01188814,0.0,0 STARLINK-5435,1 54797U 22175AR  23025.58334491 -.01188814  00000-0 -44919-1 0  9999,2 54797  53.2142 118.0091 0001441  85.0511 112.0762 15.29215588  1300,6856.293000000001,94.166,479.146,477.17,0.0
54797.0,STARLINK-5435,PAYLOAD,2023-01-25 22:00:00,15.28386564,0.0001385999999999,53.214,116.4649,89.9418,142.7501,-0.048397,-0.01243635,0.0,0 STARLINK-5435,1 54797U 22175AR  23025.91667824 -.01243635  00000-0 -48397-1 0  9992,2 54797  53.2140 116.4649 0001386  89.9418 142.7501 15.28386564  1309,6858.772,94.217,481.588,479.686,0.0
54797.0,STARLINK-5435,PAYLOAD,2023-01-26 06:00:00,15.27530998,0.0001330999999999,53.2142,114.923,101.037,166.1872,-0.049022,-0.0122833,0.0,0 STARLINK-5435,1 54797U 22175AR  23026.25001157 -.01228330  00000-0 -49022-1 0  9992,2 54797  53.2142 114.9230 0001331 101.0370 166.1872 15.27530998  5893,6861.3330000000005,94.27,484.111,482.285,0.0
54797.0,STARLINK-5435,PAYLOAD,2023-01-26 14:00:01,15.26644928,0.0001271,53.214,113.3858,87.39200000000001,213.353,-0.048589,-0.01188314,0.0,0 STARLINK-5435,1 54797U 22175AR  23026.58334491 -.01188314  00000-0 -48589-1 0  9992,2 54797  53.2140 113.3858 0001271  87.3920 213.3530 15.26644928  1306,6863.986999999999,94.324,486.725,484.98,0.0
54797.0,STARLINK-5435,PAYLOAD,2023-01-27 06:00:00,15.24961142,0.0001192,53.2142,110.3119,95.3455,269.3168,-0.053148,-0.01231309,0.0,0 STARLINK-5435,1 54797U 22175AR  23027.25001157 -.01231309  00000-0 -53148-1 0  9997,2 54797  53.2142 110.3119 0001192  95.3455 269.3168 15.24961142  6041,6869.039000000001,94.429,491.723,490.085,0.0
54797.0,STARLINK-5435,PAYLOAD,2023-01-27 14:00:01,15.24071681,0.0001254,53.214,108.7805,79.2144,315.8792,-0.052345,-0.01184637,0.0,0 STARLINK-5435,1 54797U 22175AR  23027.58334491 -.01184637  00000-0 -52345-1 0  9992,2 54797  53.2140 108.7805 0001254  79.2144 315.8792 15.24071681  1301,6871.710999999999,94.484,494.4380000000001,492.715,0.0
54797.0,STARLINK-5435,PAYLOAD,2023-01-27 22:00:00,15.23230769,0.0001262,53.214,107.2483,83.8839,340.5984,-0.0554389999999999,-0.01220344,0.0,0 STARLINK-5435,1 54797U 22175AR  23027.91667824 -.01220344  00000-0 -55439-1 0  9991,2 54797  53.2140 107.2483 0001262  83.8839 340.5984 15.23230769  1309,6874.24,94.536,496.973,495.23800000000006,0.0
54797.0,STARLINK-5435,PAYLOAD,2023-01-28 06:00:00,15.22388043,0.0001349,53.2142,105.7188,88.464,4.3682,-0.057397,-0.01231179,0.0,0 STARLINK-5435,1 54797U 22175AR  23028.25001157 -.01231179  00000-0 -57397-1 0  9993,2 54797  53.2142 105.7188 0001349  88.4640   4.3682 15.22388043  6193,6876.776999999999,94.588,499.57,497.714,0.0
54797.0,STARLINK-5435,PAYLOAD,2023-01-28 14:00:01,15.21497257,0.000142,53.2142,104.1936,77.441,42.7313,-0.056192,-0.01178402,0.0,0 STARLINK-5435,1 54797U 22175AR  23028.58334491 -.01178402  00000-0 -56192-1 0  9990,2 54797  53.2142 104.1936 0001420  77.4410  42.7313 15.21497257  1302,6879.461,94.644,502.303,500.349,0.0
54797.0,STARLINK-5435,PAYLOAD,2023-01-28 22:00:00,15.2065549,0.0001386,53.2142,102.6673,85.9298,60.5411,-0.059368,-0.01211577,0.0,0 STARLINK-5435,1 54797U 22175AR  23028.91667824 -.01211577  00000-0 -59368-1 0  9995,2 54797  53.2142 102.6673 0001386  85.9298  60.5411 15.20655490  1303,6881.999,94.696,504.818,502.91,0.0
54797.0,STARLINK-5435,PAYLOAD,2023-01-29 14:00:01,15.18924007,0.0001508,53.2144,99.6248,82.1994,113.7812,-0.060306,-0.01173174,0.0,0 STARLINK-5435,1 54797U 22175AR  23029.58334491 -.01173174  00000-0 -60306-1 0  9994,2 54797  53.2144  99.6248 0001508  82.1994 113.7812 15.18924007  6396,6887.228,94.804,510.132,508.055,0.0
54797.0,STARLINK-5435,PAYLOAD,2023-01-29 22:00:01,15.18077483,0.0001414,53.2145,98.1043,91.834,127.4205,-0.063357,-0.0120021,0.0,0 STARLINK-5435,1 54797U 22175AR  23029.91668981 -.01200210  00000-0 -63357-1 0  9996,2 54797  53.2145  98.1043 0001414  91.8340 127.4205 15.18077483  1303,6889.788,94.857,512.628,510.679,0.0
54797.0,STARLINK-5435,PAYLOAD,2023-01-30 06:00:02,15.17244781,0.0001461,53.2146,96.5873,97.6512,143.7713,-0.06682,-0.01232781,0.0,0 STARLINK-5435,1 54797U 22175AR  23030.25002315 -.01232781  00000-0 -66820-1 0  9994,2 54797  53.2146  96.5873 0001461  97.6512 143.7713 15.17244781  6502,6892.309,94.909,515.181,513.167,0.0
54797.0,STARLINK-5435,PAYLOAD,2023-01-30 14:00:01,15.16352868,0.0001436,53.2146,95.0741,86.9387,175.5791,-0.064881,-0.01171849,0.0,0 STARLINK-5435,1 54797U 22175AR  23030.58334491 -.01171849  00000-0 -64881-1 0  9995,2 54797  53.2146  95.0741 0001436  86.9387 175.5791 15.16352868  1300,6895.011,94.965,517.867,515.886,0.0
54797.0,STARLINK-5435,PAYLOAD,2023-01-31 00:00:00,15.15267575,0.0001198,53.2145,93.1814,93.7919,283.7225,-0.065822,-0.01153947,0.0,0 STARLINK-5435,1 54797U 22175AR  23031.00001157 -.01153947  00000-0 -65822-1 0  9998,2 54797  53.2145  93.1814 0001198  93.7919 283.7225 15.15267575  1304,6898.303,95.033,520.995,519.342,0.0
54797.0,STARLINK-5435,PAYLOAD,2023-01-31 14:00:01,15.13781957,0.0001317,53.2145,90.5415,87.7651,232.0202,-0.069804,-0.01171686,0.0,0 STARLINK-5435,1 54797U 22175AR  23031.58334491 -.01171686  00000-0 -69804-1 0  9995,2 54797  53.2145  90.5415 0001317  87.7651 232.0202 15.13781957  6705,6902.816,95.126,525.59,523.772,0.0
54797.0,STARLINK-5435,PAYLOAD,2023-01-31 22:00:00,15.12919659,0.0001253,53.2144,89.033,96.8835,239.938,-0.071719,-0.01174614,0.0,0 STARLINK-5435,1 54797U 22175AR  23031.91667824 -.01174614  00000-0 -71719-1 0  9993,2 54797  53.2144  89.0330 0001253  96.8835 239.9380 15.12919659  1302,6905.439,95.18,528.169,526.438,0.0
54797.0,STARLINK-5435,PAYLOAD,2023-02-01 06:00:00,15.1210208,0.0001309,53.2144,87.5284,98.5169,254.2883,-0.077515,-0.01235203,0.0,0 STARLINK-5435,1 54797U 22175AR  23032.25001157 -.01235203  00000-0 -77515-1 0  9994,2 54797  53.2144  87.5284 0001309  98.5169 254.2883 15.12102080  6804,6907.927,95.232,530.697,528.888,0.0
